[{"OBJECT_NAME":"ONEWEB-0302","OBJECT_ID":"2021-075S","EPOCH":"2026-03-06T20:10:31.088640","MEAN_MOTION":13.12441974,"ECCENTRICITY":0.0002135,"INCLINATION":87.9007,"RA_OF_ASC_NODE":10.9757,"ARG_OF_PERICENTER":79.1415,"MEAN_ANOMALY":280.9954,"EPHEMERIS_TYPE":0,"CLASSIFICATION_TYPE":"U","NORAD_CAT_ID":49091,"ELEMENT_SET_NO":999,"REV_AT_EPOCH":22112,"BSTAR":0.00091092,"MEAN_MOTION_DOT":3.4e-6,"MEAN_MOTION_DDOT":0},{"OBJECT_NAME":"ONEWEB-0304","OBJECT_ID":"2021-075T","EPOCH":"2026-03-06T08:25:07.812768","MEAN_MOTION":13.17649943,"ECCENTRICITY":0.00018749,"INCLINATION":87.9155,"RA_OF_ASC_NODE":26.2891,"ARG_OF_PERICENTER":77.9522,"MEAN_ANOMALY":282.182,"EPHEMERIS_TYPE":0,"CLASSIFICATION_TYPE":"U","NORAD_CAT_ID":49092,"ELEMENT_SET_NO":999,"REV_AT_EPOCH":22003,"BSTAR":0.0004930017,"MEAN_MOTION_DOT":2.04e-6,"MEAN_MOTION_DDOT":0},{"OBJECT_NAME":"ONEWEB-0305","OBJECT_ID":"2021-075U","EPOCH":"2026-03-06T21:00:50.856768","MEAN_MOTION":13.17648197,"ECCENTRICITY":0.0001885,"INCLINATION":87.9154,"RA_OF_ASC_NODE":26.1638,"ARG_OF_PERICENTER":68.673,"MEAN_ANOMALY":291.4603,"EPHEMERIS_TYPE":0,"CLASSIFICATION_TYPE":"U","NORAD_CAT_ID":49093,"ELEMENT_SET_NO":999,"REV_AT_EPOCH":22013,"BSTAR":-5.9568e-5,"MEAN_MOTION_DOT":-1.0e-7,"MEAN_MOTION_DDOT":0},{"OBJECT_NAME":"ONEWEB-0308","OBJECT_ID":"2021-075V","EPOCH":"2026-03-06T20:00:45.345024","MEAN_MOTION":13.12441869,"ECCENTRICITY":0.0001802,"INCLINATION":87.9006,"RA_OF_ASC_NODE":10.9697,"ARG_OF_PERICENTER":81.7939,"MEAN_ANOMALY":278.3394,"EPHEMERIS_TYPE":0,"CLASSIFICATION_TYPE":"U","NORAD_CAT_ID":49094,"ELEMENT_SET_NO":999,"REV_AT_EPOCH":22113,"BSTAR":0.0013079,"MEAN_MOTION_DOT":4.83e-6,"MEAN_MOTION_DDOT":0},{"OBJECT_NAME":"ONEWEB-0309","OBJECT_ID":"2021-075W","EPOCH":"2026-03-06T08:20:15.583776","MEAN_MOTION":13.1765844,"ECCENTRICITY":0.0002417,"INCLINATION":87.9161,"RA_OF_ASC_NODE":26.2827,"ARG_OF_PERICENTER":79.4329,"MEAN_ANOMALY":280.7075,"EPHEMERIS_TYPE":0,"CLASSIFICATION_TYPE":"U","NORAD_CAT_ID":49095,"ELEMENT_SET_NO":999,"REV_AT_EPOCH":22003,"BSTAR":0.0022254347,"MEAN_MOTION_DOT":8.77e-6,"MEAN_MOTION_DDOT":0},{"OBJECT_NAME":"ONEWEB-0310","OBJECT_ID":"2021-075X","EPOCH":"2026-03-06T09:24:00.605952","MEAN_MOTION":13.12443117,"ECCENTRICITY":0.00018072,"INCLINATION":87.8995,"RA_OF_ASC_NODE":11.0882,"ARG_OF_PERICENTER":80.7608,"MEAN_ANOMALY":279.3725,"EPHEMERIS_TYPE":0,"CLASSIFICATION_TYPE":"U","NORAD_CAT_ID":49096,"ELEMENT_SET_NO":999,"REV_AT_EPOCH":22170,"BSTAR":0.00010721795,"MEAN_MOTION_DOT":5.1e-7,"MEAN_MOTION_DDOT":0},{"OBJECT_NAME":"ONEWEB-0311","OBJECT_ID":"2021-075Y","EPOCH":"2026-03-06T13:58:02.887104","MEAN_MOTION":13.17651672,"ECCENTRICITY":0.00017479,"INCLINATION":87.9155,"RA_OF_ASC_NODE":26.2316,"ARG_OF_PERICENTER":67.5757,"MEAN_ANOMALY":292.556,"EPHEMERIS_TYPE":0,"CLASSIFICATION_TYPE":"U","NORAD_CAT_ID":49097,"ELEMENT_SET_NO":999,"REV_AT_EPOCH":22011,"BSTAR":0.00013251034,"MEAN_MOTION_DOT":6.4e-7,"MEAN_MOTION_DDOT":0},{"OBJECT_NAME":"ONEWEB-0312","OBJECT_ID":"2021-075Z","EPOCH":"2026-03-06T19:47:56.194080","MEAN_MOTION":13.17649656,"ECCENTRICITY":0.0002087,"INCLINATION":87.9148,"RA_OF_ASC_NODE":26.2014,"ARG_OF_PERICENTER":72.8159,"MEAN_ANOMALY":287.3201,"EPHEMERIS_TYPE":0,"CLASSIFICATION_TYPE":"U","NORAD_CAT_ID":49098,"ELEMENT_SET_NO":999,"REV_AT_EPOCH":22012,"BSTAR":5.9738e-5,"MEAN_MOTION_DOT":3.6e-7,"MEAN_MOTION_DDOT":0},{"OBJECT_NAME":"ONEWEB-0313","OBJECT_ID":"2021-075AA","EPOCH":"2026-03-06T08:58:57.149184","MEAN_MOTION":13.17648826,"ECCENTRICITY":0.00018607,"INCLINATION":87.9147,"RA_OF_ASC_NODE":26.297,"ARG_OF_PERICENTER":77.2008,"MEAN_ANOMALY":282.9331,"EPHEMERIS_TYPE":0,"CLASSIFICATION_TYPE":"U","NORAD_CAT_ID":49099,"ELEMENT_SET_NO":999,"REV_AT_EPOCH":22005,"BSTAR":8.3463463e-5,"MEAN_MOTION_DOT":4.5e-7,"MEAN_MOTION_DDOT":0},{"OBJECT_NAME":"ONEWEB-0314","OBJECT_ID":"2021-075AB","EPOCH":"2026-03-06T08:10:32.280096","MEAN_MOTION":13.17649953,"ECCENTRICITY":0.00020871,"INCLINATION":87.9154,"RA_OF_ASC_NODE":26.2665,"ARG_OF_PERICENTER":72.0234,"MEAN_ANOMALY":288.1125,"EPHEMERIS_TYPE":0,"CLASSIFICATION_TYPE":"U","NORAD_CAT_ID":49100,"ELEMENT_SET_NO":999,"REV_AT_EPOCH":22002,"BSTAR":0.00017211589,"MEAN_MOTION_DOT":8.0e-7,"MEAN_MOTION_DDOT":0},{"OBJECT_NAME":"ONEWEB-0315","OBJECT_ID":"2021-075AC","EPOCH":"2026-03-06T19:43:40.619424","MEAN_MOTION":13.12442736,"ECCENTRICITY":0.0001597,"INCLINATION":87.9003,"RA_OF_ASC_NODE":10.9589,"ARG_OF_PERICENTER":68.5455,"MEAN_ANOMALY":291.5843,"EPHEMERIS_TYPE":0,"CLASSIFICATION_TYPE":"U","NORAD_CAT_ID":49101,"ELEMENT_SET_NO":999,"REV_AT_EPOCH":22174,"BSTAR":0.00071874,"MEAN_MOTION_DOT":2.71e-6,"MEAN_MOTION_DDOT":0},{"OBJECT_NAME":"ONEWEB-0316","OBJECT_ID":"2021-075AD","EPOCH":"2026-03-06T11:57:03.991968","MEAN_MOTION":13.18685174,"ECCENTRICITY":0.00017909,"INCLINATION":87.9239,"RA_OF_ASC_NODE":355.8566,"ARG_OF_PERICENTER":76.442,"MEAN_ANOMALY":283.6912,"EPHEMERIS_TYPE":0,"CLASSIFICATION_TYPE":"U","NORAD_CAT_ID":49102,"ELEMENT_SET_NO":999,"REV_AT_EPOCH":22367,"BSTAR":0.00014726642,"MEAN_MOTION_DOT":7.1e-7,"MEAN_MOTION_DDOT":0},{"OBJECT_NAME":"ONEWEB-0317","OBJECT_ID":"2021-075AE","EPOCH":"2026-03-06T19:48:33.911136","MEAN_MOTION":13.12443089,"ECCENTRICITY":0.0002353,"INCLINATION":87.9005,"RA_OF_ASC_NODE":10.9804,"ARG_OF_PERICENTER":94.3004,"MEAN_ANOMALY":265.8393,"EPHEMERIS_TYPE":0,"CLASSIFICATION_TYPE":"U","NORAD_CAT_ID":49103,"ELEMENT_SET_NO":999,"REV_AT_EPOCH":22176,"BSTAR":0.0011227,"MEAN_MOTION_DOT":4.17e-6,"MEAN_MOTION_DDOT":0},{"OBJECT_NAME":"ONEWEB-0318","OBJECT_ID":"2021-075AF","EPOCH":"2026-03-06T08:13:48.509184","MEAN_MOTION":13.18685183,"ECCENTRICITY":0.00016776,"INCLINATION":87.9252,"RA_OF_ASC_NODE":355.8796,"ARG_OF_PERICENTER":70.5294,"MEAN_ANOMALY":289.602,"EPHEMERIS_TYPE":0,"CLASSIFICATION_TYPE":"U","NORAD_CAT_ID":49104,"ELEMENT_SET_NO":999,"REV_AT_EPOCH":22361,"BSTAR":6.5723057e-5,"MEAN_MOTION_DOT":3.9e-7,"MEAN_MOTION_DDOT":0},{"OBJECT_NAME":"ONEWEB-0319","OBJECT_ID":"2021-075AG","EPOCH":"2026-03-06T19:28:30.187200","MEAN_MOTION":13.1764921,"ECCENTRICITY":0.0001543,"INCLINATION":87.9147,"RA_OF_ASC_NODE":26.1982,"ARG_OF_PERICENTER":64.0938,"MEAN_ANOMALY":296.0352,"EPHEMERIS_TYPE":0,"CLASSIFICATION_TYPE":"U","NORAD_CAT_ID":49105,"ELEMENT_SET_NO":999,"REV_AT_EPOCH":22012,"BSTAR":-4.3657e-5,"MEAN_MOTION_DOT":-4.0e-8,"MEAN_MOTION_DDOT":0},{"OBJECT_NAME":"ONEWEB-0323","OBJECT_ID":"2021-075AH","EPOCH":"2026-03-06T19:21:42.825024","MEAN_MOTION":13.12442669,"ECCENTRICITY":0.0001868,"INCLINATION":87.9008,"RA_OF_ASC_NODE":10.9657,"ARG_OF_PERICENTER":57.8461,"MEAN_ANOMALY":302.2849,"EPHEMERIS_TYPE":0,"CLASSIFICATION_TYPE":"U","NORAD_CAT_ID":49106,"ELEMENT_SET_NO":999,"REV_AT_EPOCH":22112,"BSTAR":-0.00070244,"MEAN_MOTION_DOT":-2.4e-6,"MEAN_MOTION_DDOT":0},{"OBJECT_NAME":"ONEWEB-0329","OBJECT_ID":"2021-075AJ","EPOCH":"2026-03-06T08:44:33.261504","MEAN_MOTION":13.17649581,"ECCENTRICITY":0.00019189,"INCLINATION":87.9142,"RA_OF_ASC_NODE":26.2873,"ARG_OF_PERICENTER":76.5225,"MEAN_ANOMALY":283.612,"EPHEMERIS_TYPE":0,"CLASSIFICATION_TYPE":"U","NORAD_CAT_ID":49107,"ELEMENT_SET_NO":999,"REV_AT_EPOCH":22004,"BSTAR":-0.00015103281,"MEAN_MOTION_DOT":-4.6e-7,"MEAN_MOTION_DDOT":0}]
