ONEWEB-0302             
1 49091U 21075S   26065.84063760  .00000340  00000+0  91092-3 0  9991
2 49091  87.9007  10.9757 0002135  79.1415 280.9954 13.12441974221124
ONEWEB-0304             
1 49092U 21075T   26065.35078487  .00000204  00000+0  49300-3 0  9994
2 49092  87.9155  26.2891 0001874  77.9522 282.1820 13.17649943220038
ONEWEB-0305             
1 49093U 21075U   26065.87558862 -.00000010  00000+0 -59568-4 0  9997
2 49093  87.9154  26.1638 0001885  68.6730 291.4603 13.17648197220139
ONEWEB-0308             
1 49094U 21075V   26065.83385816  .00000483  00000+0  13079-2 0  9998
2 49094  87.9006  10.9697 0001802  81.7939 278.3394 13.12441869221132
ONEWEB-0309             
1 49095U 21075W   26065.34740259  .00000877  00000+0  22254-2 0  9993
2 49095  87.9161  26.2827 0002417  79.4329 280.7075 13.17658440220031
ONEWEB-0310             
1 49096U 21075X   26065.39167368  .00000051  00000+0  10722-3 0  9995
2 49096  87.8995  11.0882 0001807  80.7608 279.3725 13.12443117221705
ONEWEB-0311             
1 49097U 21075Y   26065.58197786  .00000064  00000+0  13251-3 0  9998
2 49097  87.9155  26.2316 0001747  67.5757 292.5560 13.17651672220116
ONEWEB-0312             
1 49098U 21075Z   26065.82495595  .00000036  00000+0  59738-4 0  9995
2 49098  87.9148  26.2014 0002087  72.8159 287.3201 13.17649656220121
ONEWEB-0313             
1 49099U 21075AA  26065.37427256  .00000045  00000+0  83463-4 0  9997
2 49099  87.9147  26.2970 0001860  77.2008 282.9331 13.17648826220057
ONEWEB-0314             
1 49100U 21075AB  26065.34065139  .00000080  00000+0  17212-3 0  9992
2 49100  87.9154  26.2665 0002087  72.0234 288.1125 13.17649953220023
ONEWEB-0315             
1 49101U 21075AC  26065.82199791  .00000271  00000+0  71874-3 0  9994
2 49101  87.9003  10.9589 0001597  68.5455 291.5843 13.12442736221742
ONEWEB-0316             
1 49102U 21075AD  26065.49796287  .00000071  00000+0  14727-3 0  9993
2 49102  87.9239 355.8566 0001790  76.4420 283.6912 13.18685174223679
ONEWEB-0317             
1 49103U 21075AE  26065.82539249  .00000417  00000+0  11227-2 0  9999
2 49103  87.9005  10.9804 0002353  94.3004 265.8393 13.12443089221762
ONEWEB-0318             
1 49104U 21075AF  26065.34292256  .00000039  00000+0  65723-4 0  9993
2 49104  87.9252 355.8796 0001677  70.5294 289.6020 13.18685183223619
ONEWEB-0319             
1 49105U 21075AG  26065.81146050 -.00000004  00000+0 -43657-4 0  9992
2 49105  87.9147  26.1982 0001543  64.0938 296.0352 13.17649210220126
ONEWEB-0323             
1 49106U 21075AH  26065.80674566 -.00000240  00000+0 -70244-3 0  9993
2 49106  87.9008  10.9657 0001868  57.8461 302.2849 13.12442669221120
ONEWEB-0329             
1 49107U 21075AJ  26065.36427386 -.00000046  00000+0 -15103-3 0  9998
2 49107  87.9142  26.2873 0001918  76.5225 283.6120 13.17649581220043
